[{"OBJECT_NAME":"APRIZESAT 1","OBJECT_ID":"2004-025G","EPOCH":"2026-03-09T23:27:31.277376","MEAN_MOTION":14.51715108,"ECCENTRICITY":0.00458388,"INCLINATION":98.6346,"RA_OF_ASC_NODE":76.9867,"ARG_OF_PERICENTER":96.737,"MEAN_ANOMALY":263.9043,"EPHEMERIS_TYPE":0,"CLASSIFICATION_TYPE":"U","NORAD_CAT_ID":28372,"ELEMENT_SET_NO":999,"REV_AT_EPOCH":14751,"BSTAR":0.00011028964,"MEAN_MOTION_DOT":4.0e-6,"MEAN_MOTION_DDOT":0},{"OBJECT_NAME":"CZ-6A DEB","OBJECT_ID":"2024-140UA","EPOCH":"2026-03-09T12:38:24.759744","MEAN_MOTION":14.67269756,"ECCENTRICITY":0.00378843,"INCLINATION":88.7675,"RA_OF_ASC_NODE":266.062,"ARG_OF_PERICENTER":216.6479,"MEAN_ANOMALY":143.2146,"EPHEMERIS_TYPE":0,"CLASSIFICATION_TYPE":"U","NORAD_CAT_ID":61313,"ELEMENT_SET_NO":999,"REV_AT_EPOCH":8153,"BSTAR":0.0033442941,"MEAN_MOTION_DOT":0.00019103,"MEAN_MOTION_DDOT":0}]
